DRAGONFLY               
1 65729U 98067XH  26017.22159239  .00502085  10798-3  15540-2 0  9993
2 65729  51.6191 311.8829 0007967 128.9470 231.2248 15.91068756 18779
1998-067XK              
1 65731U 98067XK  26017.19323472  .00157519  00000+0  10503-2 0  9997
2 65731  51.6278 316.2729 0004723  95.6266 264.5271 15.74350124 18719
RSP-03                  
1 65732U 98067XL  26017.09807185  .00238635  00000+0  11701-2 0  9995
2 65732  51.6249 314.8549 0005774 106.9555 253.2080 15.80991207 18731
GHS-01                  
1 65733U 98067XM  26017.21364815  .01477261  14423-2  17707-2 0  9998
2 65733  51.6200 309.5571 0007832 152.1760 207.9674 16.07941306 18812
YOTSUBA-KULOVER         
1 65941U 98067XN  26017.21565863  .00095770  00000+0  94243-3 0  9999
2 65941  51.6289 320.9370 0004200 116.9573 243.1852 15.65198951 15405
BOTAN                   
1 65942U 98067XP  26017.23289932  .00181439  00000+0  13100-2 0  9992
2 65942  51.6266 318.7884 0004916 118.0116 242.1380 15.72409875 15432
E-KAGAKU-1              
1 65943U 98067XQ  26017.21559241  .00093927  00000+0  92551-3 0  9996
2 65943  51.6303 320.9435 0002762 120.5339 239.5929 15.65179556 15402
HRC MONOBLOCK CAMERA    
1 66052U 98067XR  26017.11536740  .00039153  00000+0  54011-3 0  9996
2 66052  51.6310 324.7690 0001058  12.8712 347.2306 15.56799701 14340
HTV-X1                  
1 66174U 25241A   26017.20813769  .00012311  00000+0  22835-3 0  9990
2 66174  51.6336 326.8848 0007806  27.6188 332.5214 15.49346231   516
SZ-21 MODULE            
1 66515U 25246C   26016.67047617  .00025602  00000+0  26015-3 0  9996
2 66515  41.4744 162.6281 0002310 185.6231 174.4584 15.64580713  9919
SHENZHOU-22             
1 66645U 25272A   26016.73526015  .00015334  00000+0  18356-3 0  9990
2 66645  41.4654 164.0144 0011263 298.2256  61.7445 15.60566076267644
SOYUZ-MS 28             
1 66664U 25275A   26017.20813769  .00012311  00000+0  22835-3 0  9991
2 66664  51.6336 326.8848 0007806  27.6188 332.5214 15.49346231  1285
