CCSDS_OMM_VERS = 2.0
CREATION_DATE  = 
ORIGINATOR     = 

OBJECT_NAME    = DRAGONFLY
OBJECT_ID      = 1998-067XH
CENTER_NAME    = EARTH
REF_FRAME      = TEME
TIME_SYSTEM    = UTC
MEAN_ELEMENT_THEORY = SGP/SGP4

EPOCH          = 2026-01-17T05:19:05.582496
MEAN_MOTION    = 15.91068756
ECCENTRICITY   = .0007967
INCLINATION    = 51.6191
RA_OF_ASC_NODE = 311.8829
ARG_OF_PERICENTER = 128.9470
MEAN_ANOMALY   = 231.2248

EPHEMERIS_TYPE = 0
CLASSIFICATION_TYPE = U
NORAD_CAT_ID   = 65729
ELEMENT_SET_NO = 999
REV_AT_EPOCH   = 1877
BSTAR          = .15539867E-2
MEAN_MOTION_DOT = .502085E-2
MEAN_MOTION_DDOT = .10797596E-3

CCSDS_OMM_VERS = 2.0
CREATION_DATE  = 
ORIGINATOR     = 

OBJECT_NAME    = 1998-067XK
OBJECT_ID      = 1998-067XK
CENTER_NAME    = EARTH
REF_FRAME      = TEME
TIME_SYSTEM    = UTC
MEAN_ELEMENT_THEORY = SGP/SGP4

EPOCH          = 2026-01-17T04:38:15.479808
MEAN_MOTION    = 15.74350124
ECCENTRICITY   = .00047234
INCLINATION    = 51.6278
RA_OF_ASC_NODE = 316.2729
ARG_OF_PERICENTER = 95.6266
MEAN_ANOMALY   = 264.5271

EPHEMERIS_TYPE = 0
CLASSIFICATION_TYPE = U
NORAD_CAT_ID   = 65731
ELEMENT_SET_NO = 999
REV_AT_EPOCH   = 1871
BSTAR          = .10502606E-2
MEAN_MOTION_DOT = .157519E-2
MEAN_MOTION_DDOT = 0

CCSDS_OMM_VERS = 2.0
CREATION_DATE  = 
ORIGINATOR     = 

OBJECT_NAME    = RSP-03
OBJECT_ID      = 1998-067XL
CENTER_NAME    = EARTH
REF_FRAME      = TEME
TIME_SYSTEM    = UTC
MEAN_ELEMENT_THEORY = SGP/SGP4

EPOCH          = 2026-01-17T02:21:13.407840
MEAN_MOTION    = 15.80991207
ECCENTRICITY   = .00057744
INCLINATION    = 51.6249
RA_OF_ASC_NODE = 314.8549
ARG_OF_PERICENTER = 106.9555
MEAN_ANOMALY   = 253.2080

EPHEMERIS_TYPE = 0
CLASSIFICATION_TYPE = U
NORAD_CAT_ID   = 65732
ELEMENT_SET_NO = 999
REV_AT_EPOCH   = 1873
BSTAR          = .11700696E-2
MEAN_MOTION_DOT = .238635E-2
MEAN_MOTION_DDOT = 0

CCSDS_OMM_VERS = 2.0
CREATION_DATE  = 
ORIGINATOR     = 

OBJECT_NAME    = GHS-01
OBJECT_ID      = 1998-067XM
CENTER_NAME    = EARTH
REF_FRAME      = TEME
TIME_SYSTEM    = UTC
MEAN_ELEMENT_THEORY = SGP/SGP4

EPOCH          = 2026-01-17T05:07:39.200160
MEAN_MOTION    = 16.07941306
ECCENTRICITY   = .00078322
INCLINATION    = 51.6200
RA_OF_ASC_NODE = 309.5571
ARG_OF_PERICENTER = 152.1760
MEAN_ANOMALY   = 207.9674

EPHEMERIS_TYPE = 0
CLASSIFICATION_TYPE = U
NORAD_CAT_ID   = 65733
ELEMENT_SET_NO = 999
REV_AT_EPOCH   = 1881
BSTAR          = .17707273E-2
MEAN_MOTION_DOT = .1477261E-1
MEAN_MOTION_DDOT = .14422637E-2

CCSDS_OMM_VERS = 2.0
CREATION_DATE  = 
ORIGINATOR     = 

OBJECT_NAME    = YOTSUBA-KULOVER
OBJECT_ID      = 1998-067XN
CENTER_NAME    = EARTH
REF_FRAME      = TEME
TIME_SYSTEM    = UTC
MEAN_ELEMENT_THEORY = SGP/SGP4

EPOCH          = 2026-01-17T05:10:32.905632
MEAN_MOTION    = 15.65198951
ECCENTRICITY   = .00042003
INCLINATION    = 51.6289
RA_OF_ASC_NODE = 320.9370
ARG_OF_PERICENTER = 116.9573
MEAN_ANOMALY   = 243.1852

EPHEMERIS_TYPE = 0
CLASSIFICATION_TYPE = U
NORAD_CAT_ID   = 65941
ELEMENT_SET_NO = 999
REV_AT_EPOCH   = 1540
BSTAR          = .94242553E-3
MEAN_MOTION_DOT = .9577E-3
MEAN_MOTION_DDOT = 0

CCSDS_OMM_VERS = 2.0
CREATION_DATE  = 
ORIGINATOR     = 

OBJECT_NAME    = BOTAN
OBJECT_ID      = 1998-067XP
CENTER_NAME    = EARTH
REF_FRAME      = TEME
TIME_SYSTEM    = UTC
MEAN_ELEMENT_THEORY = SGP/SGP4

EPOCH          = 2026-01-17T05:35:22.501248
MEAN_MOTION    = 15.72409875
ECCENTRICITY   = .00049167
INCLINATION    = 51.6266
RA_OF_ASC_NODE = 318.7884
ARG_OF_PERICENTER = 118.0116
MEAN_ANOMALY   = 242.1380

EPHEMERIS_TYPE = 0
CLASSIFICATION_TYPE = U
NORAD_CAT_ID   = 65942
ELEMENT_SET_NO = 999
REV_AT_EPOCH   = 1543
BSTAR          = .13100451E-2
MEAN_MOTION_DOT = .181439E-2
MEAN_MOTION_DDOT = 0

CCSDS_OMM_VERS = 2.0
CREATION_DATE  = 
ORIGINATOR     = 

OBJECT_NAME    = E-KAGAKU-1
OBJECT_ID      = 1998-067XQ
CENTER_NAME    = EARTH
REF_FRAME      = TEME
TIME_SYSTEM    = UTC
MEAN_ELEMENT_THEORY = SGP/SGP4

EPOCH          = 2026-01-17T05:10:27.184224
MEAN_MOTION    = 15.65179556
ECCENTRICITY   = .00027625
INCLINATION    = 51.6303
RA_OF_ASC_NODE = 320.9435
ARG_OF_PERICENTER = 120.5339
MEAN_ANOMALY   = 239.5929

EPHEMERIS_TYPE = 0
CLASSIFICATION_TYPE = U
NORAD_CAT_ID   = 65943
ELEMENT_SET_NO = 999
REV_AT_EPOCH   = 1540
BSTAR          = .9255083E-3
MEAN_MOTION_DOT = .93927E-3
MEAN_MOTION_DDOT = 0

CCSDS_OMM_VERS = 2.0
CREATION_DATE  = 
ORIGINATOR     = 

OBJECT_NAME    = HRC MONOBLOCK CAMERA
OBJECT_ID      = 1998-067XR
CENTER_NAME    = EARTH
REF_FRAME      = TEME
TIME_SYSTEM    = UTC
MEAN_ELEMENT_THEORY = SGP/SGP4

EPOCH          = 2026-01-17T02:46:07.743360
MEAN_MOTION    = 15.56799701
ECCENTRICITY   = .00010588
INCLINATION    = 51.6310
RA_OF_ASC_NODE = 324.7690
ARG_OF_PERICENTER = 12.8712
MEAN_ANOMALY   = 347.2306

EPHEMERIS_TYPE = 0
CLASSIFICATION_TYPE = U
NORAD_CAT_ID   = 66052
ELEMENT_SET_NO = 999
REV_AT_EPOCH   = 1434
BSTAR          = .54011432E-3
MEAN_MOTION_DOT = .39153E-3
MEAN_MOTION_DDOT = 0

CCSDS_OMM_VERS = 2.0
CREATION_DATE  = 
ORIGINATOR     = 

OBJECT_NAME    = HTV-X1
OBJECT_ID      = 2025-241A
CENTER_NAME    = EARTH
REF_FRAME      = TEME
TIME_SYSTEM    = UTC
MEAN_ELEMENT_THEORY = SGP/SGP4

EPOCH          = 2026-01-17T04:59:43.096416
MEAN_MOTION    = 15.49346231
ECCENTRICITY   = .00078063
INCLINATION    = 51.6336
RA_OF_ASC_NODE = 326.8848
ARG_OF_PERICENTER = 27.6188
MEAN_ANOMALY   = 332.5214

EPHEMERIS_TYPE = 0
CLASSIFICATION_TYPE = U
NORAD_CAT_ID   = 66174
ELEMENT_SET_NO = 999
REV_AT_EPOCH   = 51
BSTAR          = .22834529E-3
MEAN_MOTION_DOT = .12311E-3
MEAN_MOTION_DDOT = 0

CCSDS_OMM_VERS = 2.0
CREATION_DATE  = 
ORIGINATOR     = 

OBJECT_NAME    = SZ-21 MODULE
OBJECT_ID      = 2025-246C
CENTER_NAME    = EARTH
REF_FRAME      = TEME
TIME_SYSTEM    = UTC
MEAN_ELEMENT_THEORY = SGP/SGP4

EPOCH          = 2026-01-16T16:05:29.141088
MEAN_MOTION    = 15.64580713
ECCENTRICITY   = .00023105
INCLINATION    = 41.4744
RA_OF_ASC_NODE = 162.6281
ARG_OF_PERICENTER = 185.6231
MEAN_ANOMALY   = 174.4584

EPHEMERIS_TYPE = 0
CLASSIFICATION_TYPE = U
NORAD_CAT_ID   = 66515
ELEMENT_SET_NO = 999
REV_AT_EPOCH   = 991
BSTAR          = .26015423E-3
MEAN_MOTION_DOT = .25602E-3
MEAN_MOTION_DDOT = 0

CCSDS_OMM_VERS = 2.0
CREATION_DATE  = 
ORIGINATOR     = 

OBJECT_NAME    = SHENZHOU-22
OBJECT_ID      = 2025-272A
CENTER_NAME    = EARTH
REF_FRAME      = TEME
TIME_SYSTEM    = UTC
MEAN_ELEMENT_THEORY = SGP/SGP4

EPOCH          = 2026-01-16T17:38:46.476960
MEAN_MOTION    = 15.60566076
ECCENTRICITY   = .00112636
INCLINATION    = 41.4654
RA_OF_ASC_NODE = 164.0144
ARG_OF_PERICENTER = 298.2256
MEAN_ANOMALY   = 61.7445

EPHEMERIS_TYPE = 0
CLASSIFICATION_TYPE = U
NORAD_CAT_ID   = 66645
ELEMENT_SET_NO = 999
REV_AT_EPOCH   = 26764
BSTAR          = .18355705E-3
MEAN_MOTION_DOT = .15334E-3
MEAN_MOTION_DDOT = 0

CCSDS_OMM_VERS = 2.0
CREATION_DATE  = 
ORIGINATOR     = 

OBJECT_NAME    = SOYUZ-MS 28
OBJECT_ID      = 2025-275A
CENTER_NAME    = EARTH
REF_FRAME      = TEME
TIME_SYSTEM    = UTC
MEAN_ELEMENT_THEORY = SGP/SGP4

EPOCH          = 2026-01-17T04:59:43.096416
MEAN_MOTION    = 15.49346231
ECCENTRICITY   = .00078063
INCLINATION    = 51.6336
RA_OF_ASC_NODE = 326.8848
ARG_OF_PERICENTER = 27.6188
MEAN_ANOMALY   = 332.5214

EPHEMERIS_TYPE = 0
CLASSIFICATION_TYPE = U
NORAD_CAT_ID   = 66664
ELEMENT_SET_NO = 999
REV_AT_EPOCH   = 128
BSTAR          = .22834529E-3
MEAN_MOTION_DOT = .12311E-3
MEAN_MOTION_DDOT = 0

